[{"OBJECT_NAME":"ICEYE-X43","OBJECT_ID":"2024-149BZ","EPOCH":"2026-03-09T22:37:06.906720","MEAN_MOTION":14.99337202,"ECCENTRICITY":0.00024583,"INCLINATION":97.6823,"RA_OF_ASC_NODE":147.2527,"ARG_OF_PERICENTER":59.9226,"MEAN_ANOMALY":300.2241,"EPHEMERIS_TYPE":0,"CLASSIFICATION_TYPE":"U","NORAD_CAT_ID":60539,"ELEMENT_SET_NO":999,"REV_AT_EPOCH":8524,"BSTAR":0.00036668005,"MEAN_MOTION_DOT":4.424e-5,"MEAN_MOTION_DDOT":0},{"OBJECT_NAME":"STARLINK-33877","OBJECT_ID":"2025-098H","EPOCH":"2026-03-09T22:38:27.560256","MEAN_MOTION":14.98349502,"ECCENTRICITY":0.00026954,"INCLINATION":70.0009,"RA_OF_ASC_NODE":273.6756,"ARG_OF_PERICENTER":259.6474,"MEAN_ANOMALY":100.4382,"EPHEMERIS_TYPE":0,"CLASSIFICATION_TYPE":"U","NORAD_CAT_ID":63933,"ELEMENT_SET_NO":999,"REV_AT_EPOCH":4661,"BSTAR":0.00048096011,"MEAN_MOTION_DOT":5.653e-5,"MEAN_MOTION_DDOT":0}]
